LEMUR-2-BALTO           
1 63395U 25052BH  26068.69493058  .00007621  00000+0  63456-3 0  9998
2 63395  97.6978 323.5166 0002279 359.2852   0.8367 14.98934076 53850
STARLINK-36280          
1 67211U 25304V   26068.67502086 -.00006673  00000+0 -55224-3 0  9991
2 67211  70.0027 174.4498 0003112 275.5816  84.4988 14.98313786 13884
