[{"OBJECT_NAME":"LEMUR-2-BALTO","OBJECT_ID":"2025-052BH","EPOCH":"2026-03-09T16:40:42.002112","MEAN_MOTION":14.98934076,"ECCENTRICITY":0.00022794,"INCLINATION":97.6978,"RA_OF_ASC_NODE":323.5166,"ARG_OF_PERICENTER":359.2852,"MEAN_ANOMALY":0.8367,"EPHEMERIS_TYPE":0,"CLASSIFICATION_TYPE":"U","NORAD_CAT_ID":63395,"ELEMENT_SET_NO":999,"REV_AT_EPOCH":5385,"BSTAR":0.00063455958,"MEAN_MOTION_DOT":7.621e-5,"MEAN_MOTION_DDOT":0},{"OBJECT_NAME":"STARLINK-36280","OBJECT_ID":"2025-304V","EPOCH":"2026-03-09T16:12:01.802304","MEAN_MOTION":14.98313787,"ECCENTRICITY":0.0003112,"INCLINATION":70.0027,"RA_OF_ASC_NODE":174.4498,"ARG_OF_PERICENTER":275.5816,"MEAN_ANOMALY":84.4988,"EPHEMERIS_TYPE":0,"CLASSIFICATION_TYPE":"U","NORAD_CAT_ID":67211,"ELEMENT_SET_NO":999,"REV_AT_EPOCH":1388,"BSTAR":-0.0005522368,"MEAN_MOTION_DOT":-6.673e-5,"MEAN_MOTION_DDOT":0}]
